{"type": "FeatureCollection", "features": [ {"type": "Feature", "properties": {"norad_id": 33779, "name": "COSMOS 2251 DEB", "group": "cosmos-2251-debris", "lat": -32.496680568313025, "lon": 20.138403178540354, "alt_km": 653.9858113589262, "timestamp": "2025-12-02T23:34:15.909592+00:00", "meta": {"OBJECT_NAME": "COSMOS 2251 DEB", "OBJECT_ID": "1993-036U", "EPOCH": "2025-12-02T00:16:52.481856", "MEAN_MOTION": 14.70129466, "ECCENTRICITY": 0.00179381, "INCLINATION": 74.0445, "RA_OF_ASC_NODE": 191.5182, "ARG_OF_PERICENTER": 227.0656, "MEAN_ANOMALY": 253.0885, "EPHEMERIS_TYPE": 0, "CLASSIFICATION_TYPE": "U", "NORAD_CAT_ID": 33779, "ELEMENT_SET_NO": 999, "REV_AT_EPOCH": 88370, "BSTAR": 0.0012782269, "MEAN_MOTION_DOT": 7.684e-05, "MEAN_MOTION_DDOT": 0}, "tle": {"line1": "1 33779U 93036U   25336.01171854  .00007684  00000+0  12782-2 0  9992", "line2": "2 33779  74.0445 191.5182 0017938 227.0656 253.0885 14.70129466883705"}}, "geometry": {"type": "Point", "coordinates": [20.138403178540354, -32.496680568313025]}}, {"type": "Feature", "properties": {"norad_id": 33782, "name": "COSMOS 2251 DEB", "group": "cosmos-2251-debris", "lat": -54.10204260147103, "lon": -87.70815019398385, "alt_km": 756.452892211074, "timestamp": "2025-12-02T23:34:15.909603+00:00", "meta": {"OBJECT_NAME": "COSMOS 2251 DEB", "OBJECT_ID": "1993-036X", "EPOCH": "2025-12-02T03:54:24.847776", "MEAN_MOTION": 14.40396203, "ECCENTRICITY": 0.00202875, "INCLINATION": 74.0326, "RA_OF_ASC_NODE": 297.1073, "ARG_OF_PERICENTER": 3.7981, "MEAN_ANOMALY": 12.1312, "EPHEMERIS_TYPE": 0, "CLASSIFICATION_TYPE": "U", "NORAD_CAT_ID": 33782, "ELEMENT_SET_NO": 999, "REV_AT_EPOCH": 87974, "BSTAR": 0.00052461044, "MEAN_MOTION_DOT": 1.643e-05, "MEAN_MOTION_DDOT": 0}, "tle": {"line1": "1 33782U 93036X   25336.16278759  .00001643  00000+0  52461-3 0  9992", "line2": "2 33782  74.0326 297.1073 0020287   3.7981  12.1312 14.40396203879740"}}, "geometry": {"type": "Point", "coordinates": [-87.70815019398385, -54.10204260147103]}}, {"type": "Feature", "properties": {"norad_id": 33785, "name": "COSMOS 2251 DEB", "group": "cosmos-2251-debris", "lat": -6.250429256465753, "lon": -99.13182105410398, "alt_km": 678.6318975989061, "timestamp": "2025-12-02T23:34:15.909614+00:00", "meta": {"OBJECT_NAME": "COSMOS 2251 DEB", "OBJECT_ID": "1993-036AA", "EPOCH": "2025-12-02T09:59:54.906144", "MEAN_MOTION": 14.70081993, "ECCENTRICITY": 0.0021252, "INCLINATION": 73.8673, "RA_OF_ASC_NODE": 80.1589, "ARG_OF_PERICENTER": 22.4768, "MEAN_ANOMALY": 52.1572, "EPHEMERIS_TYPE": 0, "CLASSIFICATION_TYPE": "U", "NORAD_CAT_ID": 33785, "ELEMENT_SET_NO": 999, "REV_AT_EPOCH": 88355, "BSTAR": 0.0024502, "MEAN_MOTION_DOT": 0.00014773, "MEAN_MOTION_DDOT": 0}, "tle": {"line1": "1 33785U 93036AA  25336.41660771  .00014773  00000+0  24502-2 0  9994", "line2": "2 33785  73.8673  80.1589 0021252  22.4768  52.1572 14.70081993883557"}}, "geometry": {"type": "Point", "coordinates": [-99.13182105410398, -6.250429256465753]}}, {"type": "Feature", "properties": {"norad_id": 33789, "name": "COSMOS 2251 DEB", "group": "cosmos-2251-debris", "lat": -11.566064960975737, "lon": 100.61355968572765, "alt_km": 1038.3704220691352, "timestamp": "2025-12-02T23:34:15.909625+00:00", "meta": {"OBJECT_NAME": "COSMOS 2251 DEB", "OBJECT_ID": "1993-036AE", "EPOCH": "2025-12-02T11:54:15.371136", "MEAN_MOTION": 13.88756281, "ECCENTRICITY": 0.0240515, "INCLINATION": 74.0634, "RA_OF_ASC_NODE": 104.7905, "ARG_OF_PERICENTER": 222.6666, "MEAN_ANOMALY": 213.7478, "EPHEMERIS_TYPE": 0, "CLASSIFICATION_TYPE": "U", "NORAD_CAT_ID": 33789, "ELEMENT_SET_NO": 999, "REV_AT_EPOCH": 84953, "BSTAR": 0.00098678, "MEAN_MOTION_DOT": 1.476e-05, "MEAN_MOTION_DDOT": 0}, "tle": {"line1": "1 33789U 93036AE  25336.49601124  .00001476  00000+0  98678-3 0  9995", "line2": "2 33789  74.0634 104.7905 0240515 222.6666 213.7478 13.88756281849539"}}, "geometry": {"type": "Point", "coordinates": [100.61355968572765, -11.566064960975737]}}, {"type": "Feature", "properties": {"norad_id": 33791, "name": "COSMOS 2251 DEB", "group": "cosmos-2251-debris", "lat": 61.81319624960095, "lon": -156.40361982758893, "alt_km": 758.926230764333, "timestamp": "2025-12-02T23:34:15.909636+00:00", "meta": {"OBJECT_NAME": "COSMOS 2251 DEB", "OBJECT_ID": "1993-036AG", "EPOCH": "2025-12-02T10:05:14.142048", "MEAN_MOTION": 14.4304007, "ECCENTRICITY": 0.0030579, "INCLINATION": 74.1759, "RA_OF_ASC_NODE": 56.5833, "ARG_OF_PERICENTER": 255.43, "MEAN_ANOMALY": 180.9129, "EPHEMERIS_TYPE": 0, "CLASSIFICATION_TYPE": "U", "NORAD_CAT_ID": 33791, "ELEMENT_SET_NO": 999, "REV_AT_EPOCH": 87903, "BSTAR": 0.00085401, "MEAN_MOTION_DOT": 2.853e-05, "MEAN_MOTION_DDOT": 0}, "tle": {"line1": "1 33791U 93036AG  25336.42030257  .00002853  00000+0  85401-3 0  9994", "line2": "2 33791  74.1759  56.5833 0030579 255.4300 180.9129 14.43040070879031"}}, "geometry": {"type": "Point", "coordinates": [-156.40361982758893, 61.81319624960095]}}, {"type": "Feature", "properties": {"norad_id": 33792, "name": "COSMOS 2251 DEB", "group": "cosmos-2251-debris", "lat": -27.65580038777636, "lon": -7.777426725381217, "alt_km": 1113.9829049057143, "timestamp": "2025-12-02T23:34:15.909647+00:00", "meta": {"OBJECT_NAME": "COSMOS 2251 DEB", "OBJECT_ID": "1993-036AH", "EPOCH": "2025-12-02T11:44:52.132128", "MEAN_MOTION": 13.45800497, "ECCENTRICITY": 0.0426816, "INCLINATION": 73.9012, "RA_OF_ASC_NODE": 1.713, "ARG_OF_PERICENTER": 68.2829, "MEAN_ANOMALY": 41.9153, "EPHEMERIS_TYPE": 0, "CLASSIFICATION_TYPE": "U", "NORAD_CAT_ID": 33792, "ELEMENT_SET_NO": 999, "REV_AT_EPOCH": 82304, "BSTAR": 0.00076236, "MEAN_MOTION_DOT": 7.7e-06, "MEAN_MOTION_DDOT": 0}, "tle": {"line1": "1 33792U 93036AH  25336.48949227  .00000770  00000+0  76236-3 0  9999", "line2": "2 33792  73.9012   1.7130 0426816  68.2829  41.9153 13.45800497823043"}}, "geometry": {"type": "Point", "coordinates": [-7.777426725381217, -27.65580038777636]}}, {"type": "Feature", "properties": {"norad_id": 33793, "name": "COSMOS 2251 DEB", "group": "cosmos-2251-debris", "lat": 2.847464020978937, "lon": -13.167783459466888, "alt_km": 846.2204200797332, "timestamp": "2025-12-02T23:34:15.909657+00:00", "meta": {"OBJECT_NAME": "COSMOS 2251 DEB", "OBJECT_ID": "1993-036AJ", "EPOCH": "2025-12-02T06:45:35.467200", "MEAN_MOTION": 14.27668004, "ECCENTRICITY": 0.0078149, "INCLINATION": 73.9798, "RA_OF_ASC_NODE": 168.9236, "ARG_OF_PERICENTER": 321.0707, "MEAN_ANOMALY": 217.6959, "EPHEMERIS_TYPE": 0, "CLASSIFICATION_TYPE": "U", "NORAD_CAT_ID": 33793, "ELEMENT_SET_NO": 999, "REV_AT_EPOCH": 87057, "BSTAR": 0.00077971, "MEAN_MOTION_DOT": 1.959e-05, "MEAN_MOTION_DDOT": 0}, "tle": {"line1": "1 33793U 93036AJ  25336.28166050  .00001959  00000+0  77971-3 0  9990", "line2": "2 33793  73.9798 168.9236 0078149 321.0707 217.6959 14.27668004870578"}}, "geometry": {"type": "Point", "coordinates": [-13.167783459466888, 2.847464020978937]}}, {"type": "Feature", "properties": {"norad_id": 33795, "name": "COSMOS 2251 DEB", "group": "cosmos-2251-debris", "lat": -69.08999351831636, "lon": 48.18944515563265, "alt_km": 563.0450068857845, "timestamp": "2025-12-02T23:34:15.909668+00:00", "meta": {"OBJECT_NAME": "COSMOS 2251 DEB", "OBJECT_ID": "1993-036AL", "EPOCH": "2025-12-02T09:48:06.604992", "MEAN_MOTION": 15.04836502, "ECCENTRICITY": 0.0033437, "INCLINATION": 74.0314, "RA_OF_ASC_NODE": 97.9096, "ARG_OF_PERICENTER": 184.3341, "MEAN_ANOMALY": 232.2131, "EPHEMERIS_TYPE": 0, "CLASSIFICATION_TYPE": "U", "NORAD_CAT_ID": 33795, "ELEMENT_SET_NO": 999, "REV_AT_EPOCH": 89866, "BSTAR": 0.0019712, "MEAN_MOTION_DOT": 0.00028276, "MEAN_MOTION_DDOT": 0}, "tle": {"line1": "1 33795U 93036AL  25336.40840978  .00028276  00000+0  19712-2 0  9993", "line2": "2 33795  74.0314  97.9096 0033437 184.3341 232.2131 15.04836502898667"}}, "geometry": {"type": "Point", "coordinates": [48.18944515563265, -69.08999351831636]}}, {"type": "Feature", "properties": {"norad_id": 33797, "name": "COSMOS 2251 DEB", "group": "cosmos-2251-debris", "lat": -32.313905768021534, "lon": 43.08028916389336, "alt_km": 749.4806310201775, "timestamp": "2025-12-02T23:34:15.909678+00:00", "meta": {"OBJECT_NAME": "COSMOS 2251 DEB", "OBJECT_ID": "1993-036AN", "EPOCH": "2025-12-02T07:32:15.616032", "MEAN_MOTION": 14.57773976, "ECCENTRICITY": 0.0061306, "INCLINATION": 74.0485, "RA_OF_ASC_NODE": 54.7719, "ARG_OF_PERICENTER": 145.7097, "MEAN_ANOMALY": 276.109, "EPHEMERIS_TYPE": 0, "CLASSIFICATION_TYPE": "U", "NORAD_CAT_ID": 33797, "ELEMENT_SET_NO": 999, "REV_AT_EPOCH": 88833, "BSTAR": 0.00068498, "MEAN_MOTION_DOT": 3.185e-05, "MEAN_MOTION_DDOT": 0}, "tle": {"line1": "1 33797U 93036AN  25336.31406963  .00003185  00000+0  68498-3 0  9995", "line2": "2 33797  74.0485  54.7719 0061306 145.7097 276.1090 14.57773976888332"}}, "geometry": {"type": "Point", "coordinates": [43.08028916389336, -32.313905768021534]}}, {"type": "Feature", "properties": {"norad_id": 33798, "name": "COSMOS 2251 DEB", "group": "cosmos-2251-debris", "lat": -47.61746248582992, "lon": 135.78860063268633, "alt_km": 693.9897901512804, "timestamp": "2025-12-02T23:34:15.909689+00:00", "meta": {"OBJECT_NAME": "COSMOS 2251 DEB", "OBJECT_ID": "1993-036AP", "EPOCH": "2025-12-02T12:28:34.315104", "MEAN_MOTION": 14.44594438, "ECCENTRICITY": 0.009248, "INCLINATION": 74.0276, "RA_OF_ASC_NODE": 154.9409, "ARG_OF_PERICENTER": 278.516, "MEAN_ANOMALY": 147.6254, "EPHEMERIS_TYPE": 0, "CLASSIFICATION_TYPE": "U", "NORAD_CAT_ID": 33798, "ELEMENT_SET_NO": 999, "REV_AT_EPOCH": 88446, "BSTAR": 0.00020721, "MEAN_MOTION_DOT": 7.26e-06, "MEAN_MOTION_DDOT": 0}, "tle": {"line1": "1 33798U 93036AP  25336.51984161  .00000726  00000+0  20721-3 0  9994", "line2": "2 33798  74.0276 154.9409 0092480 278.5160 147.6254 14.44594438884467"}}, "geometry": {"type": "Point", "coordinates": [135.78860063268633, -47.61746248582992]}}]}